OBJECT_NAME,OBJECT_ID,EPOCH,MEAN_MOTION,ECCENTRICITY,INCLINATION,RA_OF_ASC_NODE,ARG_OF_PERICENTER,MEAN_ANOMALY,EPHEMERIS_TYPE,CLASSIFICATION_TYPE,NORAD_CAT_ID,ELEMENT_SET_NO,REV_AT_EPOCH,BSTAR,MEAN_MOTION_DOT,MEAN_MOTION_DDOT
ASTRA 1M,2008-057A,2026-06-25T04:08:14.267040,1.00276070,.0005247,0.3173,82.6405,28.5929,243.5628,0,U,33436,999,4581,0,.131E-5,0
EUTELSAT HOTBIRD 13C,2008-065A,2026-06-25T03:48:16.180704,1.00273970,.000346,2.9708,79.1037,10.9208,190.0206,0,U,33459,999,4742,0,-.275E-5,0
EXPRESS-AM44,2009-007A,2026-06-25T03:59:30.105024,1.00271577,.0004207,3.4849,78.3039,6.9634,236.8962,0,U,33595,999,5236,0,-.83E-6,0
NSS-9,2009-008A,2026-06-25T03:12:14.601312,1.00273673,.0002268,1.2826,82.5957,355.8284,65.9830,0,U,33749,999,6360,0,.8E-6,0
TELSTAR 11N,2009-009A,2026-06-25T04:20:23.872704,1.00272497,.0002623,0.0424,81.7074,11.5310,207.6336,0,U,34111,999,4632,0,-.241E-5,0
WGS F2 (USA 204),2009-017A,2026-06-24T23:11:05.098272,1.00273610,.0000446,0.0174,17.3747,109.7468,191.2697,0,U,34713,999,4569,0,.77E-6,0
SES-7 (PROTOSTAR 2),2009-027A,2026-06-24T23:25:33.710304,1.00270193,.0000776,0.0327,63.0556,106.5511,203.1349,0,U,34941,999,6270,0,-.336E-5,0
MEASAT-3A,2009-032A,2026-06-24T04:51:07.339392,1.00271164,.00031652,0.0269,26.0762,61.0151,58.0564,0,U,35362,999,810,0,-.103E-5,0
GOES 14,2009-033A,2026-06-24T21:51:11.527776,1.00108945,.0002175,1.7107,82.9596,17.1878,278.0393,0,U,35491,999,666,0,-.31E-5,0
FM-5,2009-034A,2026-06-25T03:38:01.672800,1.00270358,.0000747,0.0211,292.4740,47.4367,261.7228,0,U,35493,999,4672,0,-.19E-5,0
TERRESTAR-1,2009-035A,2026-06-24T04:38:38.723136,1.00270173,.00026179,5.1804,48.7950,40.3346,141.8619,0,U,35496,999,6220,0,-.53E-6,0
ASIASAT 5,2009-042A,2026-06-24T23:23:18.926304,1.00263654,.0001496,0.0449,62.3328,39.6297,262.5347,0,U,35696,999,6178,0,0,0
JCSAT-12 (JCSAT-RA),2009-044A,2026-06-25T01:14:55.760064,1.00271668,.0000181,0.0144,313.9178,309.2783,160.7695,0,U,35755,999,6168,0,-.318E-5,0
OPTUS D3,2009-044B,2026-06-24T04:49:59.947392,1.00270426,.00031872,0.8771,268.7051,187.1469,45.1352,0,U,35756,999,6163,0,-.138E-5,0
NIMIQ 5,2009-050A,2026-06-25T03:49:38.563968,1.00271531,.0002938,0.0408,271.5942,171.9364,174.4852,0,U,35873,999,6142,0,-.247E-5,0
AMAZONAS 2,2009-054A,2026-06-25T03:49:38.563968,1.00271470,.0003488,1.8365,82.9576,12.8482,162.9173,0,U,35942,999,6126,0,-.251E-5,0
COMSATBW-1,2009-054B,2026-06-25T00:15:21.741120,1.00270985,.0003088,0.0567,142.7825,310.5922,246.6326,0,U,35943,999,6138,0,.34E-6,0
NSS-12,2009-058A,2026-06-25T04:18:58.238208,1.00272185,.0004971,0.0787,276.3647,145.9759,332.7252,0,U,36032,999,6099,0,.81E-6,0
THOR 6,2009-058B,2026-06-25T04:02:22.327872,1.00272947,.0002024,0.0209,261.8027,200.1047,231.1659,0,U,36033,999,6108,0,0,0
INTELSAT 14 (IS-14),2009-064A,2026-06-25T03:49:46.036704,1.00270395,.0002657,0.0184,8.2049,87.7304,189.8020,0,U,36097,999,6068,0,-.264E-5,0
EUTELSAT 36B,2009-065A,2026-06-25T04:17:05.918208,1.00272113,.000578,0.5115,81.2234,10.9697,295.8785,0,U,36101,999,6078,0,.121E-5,0
INTELSAT 15 (IS-15),2009-067A,2026-06-24T23:18:49.354848,1.00271794,.000246,0.0151,21.3402,75.4753,251.1575,0,U,36106,999,4130,0,-.176E-5,0
WGS F3 (USA 211),2009-068A,2026-06-24T13:44:21.706080,1.00271384,.0000561,0.3172,85.7447,328.2364,294.8367,0,U,36108,999,4666,0,.72E-6,0
DIRECTV 12,2009-075A,2026-06-24T04:44:21.940224,1.00269396,.00004009,0.0396,154.7925,358.0182,87.9069,0,U,36131,999,4662,0,-.96E-6,0
BEIDOU-2 G1,2010-001A,2026-06-24T21:52:03.944928,1.00273706,.0002474,4.3122,60.3934,306.0873,15.0490,0,U,36287,999,6024,0,-.274E-5,0
SDO,2010-005A,2026-06-23T07:20:30.148800,1.00270594,.00017333,34.6648,86.2482,49.0122,144.1818,0,U,36395,999,6012,0,-.88E-6,0
INTELSAT 16 (IS-16),2010-006A,2026-06-25T03:40:53.898240,1.00271146,.0002375,0.0100,20.8909,88.4314,142.9912,0,U,36397,999,5973,0,-.235E-5,0
EWS-G2 (GOES 15),2010-008A,2026-06-25T00:15:21.741120,1.00267909,.0005214,1.2993,82.7471,42.2541,215.5751,0,U,36411,999,5971,0,.29E-6,0
ECHOSTAR 14,2010-010A,2026-06-25T02:51:38.613024,1.00274893,.00026,0.0302,276.5264,181.9915,98.7621,0,U,36499,999,4663,0,.9E-7,0
SES-1,2010-016A,2026-06-24T05:19:13.090656,1.00272015,.0002863,0.0175,320.5913,128.7877,161.7985,0,U,36516,999,5910,0,-.107E-5,0
ASTRA 3B,2010-021A,2026-06-25T04:09:21.659040,1.00274588,.0004083,1.4897,83.4557,13.4907,262.2241,0,U,36581,999,5894,0,.146E-5,0
COMSATBW-2,2010-021B,2026-06-25T04:06:29.435328,1.00278927,.0002956,0.0474,182.8265,288.8225,236.5740,0,U,36582,999,5903,0,.1E-5,0
