ASTRA 1M                
1 33436U 08057A   26176.17238735  .00000131  00000+0  00000+0 0  9990
2 33436   0.3173  82.6405 0005247  28.5929 243.5628  1.00276070 45814
EUTELSAT HOTBIRD 13C    
1 33459U 08065A   26176.15852061 -.00000275  00000+0  00000+0 0  9996
2 33459   2.9708  79.1037 0003460  10.9208 190.0206  1.00273970 47426
EXPRESS-AM44            
1 33595U 09007A   26176.16632066 -.00000083  00000+0  00000+0 0  9993
2 33595   3.4849  78.3039 0004207   6.9634 236.8962  1.00271577 52368
NSS-9                   
1 33749U 09008A   26176.13350233  .00000080  00000+0  00000+0 0  9991
2 33749   1.2826  82.5957 0002268 355.8284  65.9830  1.00273673 63601
TELSTAR 11N             
1 34111U 09009A   26176.18083186 -.00000241  00000+0  00000+0 0  9991
2 34111   0.0424  81.7074 0002623  11.5310 207.6336  1.00272497 46327
WGS F2 (USA 204)        
1 34713U 09017A   26175.96603123  .00000077  00000+0  00000+0 0  9998
2 34713   0.0174  17.3747 0000446 109.7468 191.2697  1.00273610 45699
SES-7 (PROTOSTAR 2)     
1 34941U 09027A   26175.97608461 -.00000336  00000+0  00000+0 0  9992
2 34941   0.0327  63.0556 0000776 106.5511 203.1349  1.00270193 62709
MEASAT-3A               
1 35362U 09032A   26175.20216828 -.00000103  00000+0  00000+0 0  9996
2 35362   0.0269  26.0762 0003165  61.0151  58.0564  1.00271164  8109
GOES 14                 
1 35491U 09033A   26175.91055009 -.00000310  00000+0  00000+0 0  9990
2 35491   1.7107  82.9596 0002175  17.1878 278.0393  1.00108945  6664
FM-5                    
1 35493U 09034A   26176.15140825 -.00000190  00000+0  00000+0 0  9997
2 35493   0.0211 292.4740 0000747  47.4367 261.7228  1.00270358 46720
TERRESTAR-1             
1 35496U 09035A   26175.19350374 -.00000053  00000+0  00000+0 0  9994
2 35496   5.1804  48.7950 0002617  40.3346 141.8619  1.00270173 62207
ASIASAT 5               
1 35696U 09042A   26175.97452461  .00000000  00000+0  00000+0 0  9991
2 35696   0.0449  62.3328 0001496  39.6297 262.5347  1.00263654 61786
JCSAT-12 (JCSAT-RA)     
1 35755U 09044A   26176.05203426 -.00000318  00000+0  00000+0 0  9997
2 35755   0.0144 313.9178 0000181 309.2783 160.7695  1.00271668 61686
OPTUS D3                
1 35756U 09044B   26175.20138828 -.00000138  00000+0  00000+0 0  9997
2 35756   0.8771 268.7051 0003187 187.1469  45.1352  1.00270426 61633
NIMIQ 5                 
1 35873U 09050A   26176.15947412 -.00000247  00000+0  00000+0 0  9997
2 35873   0.0408 271.5942 0002938 171.9364 174.4852  1.00271531 61427
AMAZONAS 2              
1 35942U 09054A   26176.15947412 -.00000251  00000+0  00000+0 0  9993
2 35942   1.8365  82.9576 0003488  12.8482 162.9173  1.00271470 61269
COMSATBW-1              
1 35943U 09054B   26176.01066830  .00000034  00000+0  00000+0 0  9993
2 35943   0.0567 142.7825 0003088 310.5922 246.6326  1.00270985 61383
NSS-12                  
1 36032U 09058A   26176.17984072  .00000081  00000+0  00000+0 0  9993
2 36032   0.0787 276.3647 0004971 145.9759 332.7252  1.00272185 60998
THOR 6                  
1 36033U 09058B   26176.16831398  .00000000  00000+0  00000+0 0  9996
2 36033   0.0209 261.8027 0002024 200.1047 231.1659  1.00272947 61080
INTELSAT 14 (IS-14)     
1 36097U 09064A   26176.15956061 -.00000264  00000+0  00000+0 0  9990
2 36097   0.0184   8.2049 0002657  87.7304 189.8020  1.00270395 60687
EUTELSAT 36B            
1 36101U 09065A   26176.17854072  .00000121  00000+0  00000+0 0  9999
2 36101   0.5115  81.2234 0005780  10.9697 295.8785  1.00272113 60789
INTELSAT 15 (IS-15)     
1 36106U 09067A   26175.97140457 -.00000176  00000+0  00000+0 0  9999
2 36106   0.0151  21.3402 0002460  75.4753 251.1575  1.00271794 41305
WGS F3 (USA 211)        
1 36108U 09068A   26175.57247345  .00000072  00000+0  00000+0 0  9996
2 36108   0.3172  85.7447 0000561 328.2364 294.8367  1.00271384 46665
DIRECTV 12              
1 36131U 09075A   26175.19747616 -.00000096  00000+0  00000+0 0  9991
2 36131   0.0396 154.7925 0000400 358.0182  87.9069  1.00269396 46621
BEIDOU-2 G1             
1 36287U 10001A   26175.91115677 -.00000274  00000+0  00000+0 0  9998
2 36287   4.3122  60.3934 0002474 306.0873  15.0490  1.00273706 60246
SDO                     
1 36395U 10005A   26174.30590450 -.00000088  00000+0  00000+0 0  9993
2 36395  34.6648  86.2482 0001733  49.0122 144.1818  1.00270594 60125
INTELSAT 16 (IS-16)     
1 36397U 10006A   26176.15340160 -.00000235  00000+0  00000+0 0  9996
2 36397   0.0100  20.8909 0002375  88.4314 142.9912  1.00271146 59738
EWS-G2 (GOES 15)        
1 36411U 10008A   26176.01066830  .00000029  00000+0  00000+0 0  9999
2 36411   1.2993  82.7471 0005214  42.2541 215.5751  1.00267909 59712
ECHOSTAR 14             
1 36499U 10010A   26176.11919691  .00000009  00000+0  00000+0 0  9999
2 36499   0.0302 276.5264 0002600 181.9915  98.7621  1.00274893 46638
SES-1                   
1 36516U 10016A   26175.22167929 -.00000107  00000+0  00000+0 0  9995
2 36516   0.0175 320.5913 0002863 128.7877 161.7985  1.00272015 59108
ASTRA 3B                
1 36581U 10021A   26176.17316735  .00000146  00000+0  00000+0 0  9991
2 36581   1.4897  83.4557 0004083  13.4907 262.2241  1.00274588 58945
COMSATBW-2              
1 36582U 10021B   26176.17117402  .00000100  00000+0  00000+0 0  9992
2 36582   0.0474 182.8265 0002956 288.8225 236.5740  1.00278927 59030
